[
    {
        "Altitude(m)": 617719.7284938373,
        "Argument of Periapsis(deg)": 0.0,
        "Eccentricity": 0.0,
        "Inclination(deg)": 60.0,
        "Latitude(deg)": -41.102525187070334,
        "Longitude(deg)": 140.09456895110128,
        "Mean Anomaly(deg)": 229.09090000000003,
        "RAAN(deg)": 30.0,
        "Satellite Name": "Test1 146",
        "Satellite Number": 146,
        "Semi-Major Axis(m)": 6980739.136638005,
        "Time(s)": 0
    },
    {
        "Altitude(m)": 617911.2646046457,
        "Argument of Periapsis(deg)": 0.00010418945913296404,
        "Eccentricity": 0.0,
        "Inclination(deg)": 60.0,
        "Latitude(deg)": -41.56571797174305,
        "Longitude(deg)": 140.59897332854678,
        "Mean Anomaly(deg)": 229.71100614546188,
        "RAAN(deg)": 29.99957995086026,
        "Satellite Name": "Test1 146",
        "Satellite Number": 146,
        "Semi-Major Axis(m)": 6980739.136638005,
        "Time(s)": 10
    },
    {
        "Altitude(m)": 618101.6755094593,
        "Argument of Periapsis(deg)": 0.0002083789182659281,
        "Eccentricity": 0.0,
        "Inclination(deg)": 60.0,
        "Latitude(deg)": -42.02623227327222,
        "Longitude(deg)": 141.11118504223958,
        "Mean Anomaly(deg)": 230.3311122909237,
        "RAAN(deg)": 29.999159901720517,
        "Satellite Name": "Test1 146",
        "Satellite Number": 146,
        "Semi-Major Axis(m)": 6980739.136638005,
        "Time(s)": 20
    },
    {
        "Altitude(m)": 618290.8881808514,
        "Argument of Periapsis(deg)": 0.00031256837739889213,
        "Eccentricity": 0.0,
        "Inclination(deg)": 60.0,
        "Latitude(deg)": -42.48398784554786,
        "Longitude(deg)": 141.631398776754,
        "Mean Anomaly(deg)": 230.95121843638552,
        "RAAN(deg)": 29.99873985258077,
        "Satellite Name": "Test1 146",
        "Satellite Number": 146,
        "Semi-Major Axis(m)": 6980739.136638005,
        "Time(s)": 30
    },
    {
        "Altitude(m)": 618478.8299686069,
        "Argument of Periapsis(deg)": 0.0004167578365318562,
        "Eccentricity": 0.0,
        "Inclination(deg)": 60.0,
        "Latitude(deg)": -42.938901917424595,
        "Longitude(deg)": 142.15981301035873,
        "Mean Anomaly(deg)": 231.57132458184736,
        "RAAN(deg)": 29.998319803441028,
        "Satellite Name": "Test1 146",
        "Satellite Number": 146,
        "Semi-Major Axis(m)": 6980739.136638005,
        "Time(s)": 40
    },
    {
        "Altitude(m)": 618665.4286313764,
        "Argument of Periapsis(deg)": 0.0005209472956648203,
        "Eccentricity": 0.0,
        "Inclination(deg)": 60.0,
        "Latitude(deg)": -43.390889114608115,
        "Longitude(deg)": 142.6966289171067,
        "Mean Anomaly(deg)": 232.19143072730915,
        "RAAN(deg)": 29.997899754301283,
        "Satellite Name": "Test1 146",
        "Satellite Number": 146,
        "Semi-Major Axis(m)": 6980739.136638005,
        "Time(s)": 50
    },
    {
        "Altitude(m)": 618850.6123681046,
        "Argument of Periapsis(deg)": 0.0006251367547977843,
        "Eccentricity": 0.0,
        "Inclination(deg)": 60.0,
        "Latitude(deg)": -43.83986138090172,
        "Longitude(deg)": 143.2420507620451,
        "Mean Anomaly(deg)": 232.811536872771,
        "RAAN(deg)": 29.99747970516154,
        "Satellite Name": "Test1 146",
        "Satellite Number": 146,
        "Semi-Major Axis(m)": 6980739.136638005,
        "Time(s)": 60
    },
    {
        "Altitude(m)": 619034.3098492977,
        "Argument of Periapsis(deg)": 0.0007293262139307483,
        "Eccentricity": 0.0,
        "Inclination(deg)": 60.0,
        "Latitude(deg)": -44.28572789904476,
        "Longitude(deg)": 143.79628627480898,
        "Mean Anomaly(deg)": 233.43164301823282,
        "RAAN(deg)": 29.997059656021797,
        "Satellite Name": "Test1 146",
        "Satellite Number": 146,
        "Semi-Major Axis(m)": 6980739.136638005,
        "Time(s)": 70
    },
    {
        "Altitude(m)": 619216.4502479983,
        "Argument of Periapsis(deg)": 0.0008335156730637124,
        "Eccentricity": 0.0,
        "Inclination(deg)": 60.0,
        "Latitude(deg)": -44.728395011406015,
        "Longitude(deg)": 144.35954548674005,
        "Mean Anomaly(deg)": 234.05174916369467,
        "RAAN(deg)": 29.996639606882056,
        "Satellite Name": "Test1 146",
        "Satellite Number": 146,
        "Semi-Major Axis(m)": 6980739.136638005,
        "Time(s)": 80
    },
    {
        "Altitude(m)": 619396.9632705804,
        "Argument of Periapsis(deg)": 0.0009377051321966765,
        "Eccentricity": 0.0,
        "Inclination(deg)": 60.0,
        "Latitude(deg)": -45.16776614083808,
        "Longitude(deg)": 144.93204105516693,
        "Mean Anomaly(deg)": 234.67185530915646,
        "RAAN(deg)": 29.996219557742315,
        "Satellite Name": "Test1 146",
        "Satellite Number": 146,
        "Semi-Major Axis(m)": 6980739.136638005,
        "Time(s)": 90
    },
    {
        "Altitude(m)": 619575.7791872364,
        "Argument of Periapsis(deg)": 0.0010418945913296407,
        "Eccentricity": 0.0,
        "Inclination(deg)": 60.0,
        "Latitude(deg)": -45.603741712034655,
        "Longitude(deg)": 145.51398855975327,
        "Mean Anomaly(deg)": 235.2919614546183,
        "RAAN(deg)": 29.995799508602573,
        "Satellite Name": "Test1 146",
        "Satellite Number": 146,
        "Semi-Major Axis(m)": 6980739.136638005,
        "Time(s)": 100
    },
    {
        "Altitude(m)": 619752.8288622078,
        "Argument of Periapsis(deg)": 0.0011460840504626045,
        "Eccentricity": 0.0,
        "Inclination(deg)": 60.0,
        "Latitude(deg)": -46.0362190737716,
        "Longitude(deg)": 146.1056052556958,
        "Mean Anomaly(deg)": 235.91206760008015,
        "RAAN(deg)": 29.99537945946283,
        "Satellite Name": "Test1 146",
        "Satellite Number": 146,
        "Semi-Major Axis(m)": 6980739.136638005,
        "Time(s)": 110
    },
    {
        "Altitude(m)": 619928.0437837589,
        "Argument of Periapsis(deg)": 0.0012502735095955685,
        "Eccentricity": 0.0,
        "Inclination(deg)": 60.0,
        "Latitude(deg)": -46.465092422468835,
        "Longitude(deg)": 146.70711030706127,
        "Mean Anomaly(deg)": 236.53217374554197,
        "RAAN(deg)": 29.994959410323087,
        "Satellite Name": "Test1 146",
        "Satellite Number": 146,
        "Semi-Major Axis(m)": 6980739.136638005,
        "Time(s)": 120
    },
    {
        "Altitude(m)": 620101.3560938225,
        "Argument of Periapsis(deg)": 0.0013544629687285324,
        "Eccentricity": 0.0,
        "Inclination(deg)": 60.0,
        "Latitude(deg)": -46.890252727551925,
        "Longitude(deg)": 147.31872498482613,
        "Mean Anomaly(deg)": 237.15227989100384,
        "RAAN(deg)": 29.994539361183346,
        "Satellite Name": "Test1 146",
        "Satellite Number": 146,
        "Semi-Major Axis(m)": 6980739.136638005,
        "Time(s)": 130
    },
    {
        "Altitude(m)": 620272.6986173545,
        "Argument of Periapsis(deg)": 0.0014586524278614966,
        "Eccentricity": 0.0,
        "Inclination(deg)": 60.0,
        "Latitude(deg)": -47.311587659146454,
        "Longitude(deg)": 147.94067131408423,
        "Mean Anomaly(deg)": 237.77238603646566,
        "RAAN(deg)": 29.994119312043605,
        "Satellite Name": "Test1 146",
        "Satellite Number": 146,
        "Semi-Major Axis(m)": 6980739.136638005,
        "Time(s)": 140
    },
    {
        "Altitude(m)": 620442.0048913708,
        "Argument of Periapsis(deg)": 0.0015628418869944607,
        "Eccentricity": 0.0,
        "Inclination(deg)": 60.0,
        "Latitude(deg)": -47.728981518701325,
        "Longitude(deg)": 148.57317219341573,
        "Mean Anomaly(deg)": 238.3924921819275,
        "RAAN(deg)": 29.993699262903853,
        "Satellite Name": "Test1 146",
        "Satellite Number": 146,
        "Semi-Major Axis(m)": 6980739.136638005,
        "Time(s)": 150
    },
    {
        "Altitude(m)": 620609.2091936517,
        "Argument of Periapsis(deg)": 0.0016670313461274247,
        "Eccentricity": 0.0,
        "Inclination(deg)": 60.0,
        "Latitude(deg)": -48.14231517319141,
        "Longitude(deg)": 149.21645147072286,
        "Mean Anomaly(deg)": 239.0125983273893,
        "RAAN(deg)": 29.99327921376411,
        "Satellite Name": "Test1 146",
        "Satellite Number": 146,
        "Semi-Major Axis(m)": 6980739.136638005,
        "Time(s)": 160
    },
    {
        "Altitude(m)": 620774.2465710827,
        "Argument of Periapsis(deg)": 0.0017712208052603888,
        "Eccentricity": 0.0,
        "Inclination(deg)": 60.0,
        "Latitude(deg)": -48.55146599361489,
        "Longitude(deg)": 149.87073245978758,
        "Mean Anomaly(deg)": 239.63270447285115,
        "RAAN(deg)": 29.99285916462437,
        "Satellite Name": "Test1 146",
        "Satellite Number": 146,
        "Semi-Major Axis(m)": 6980739.136638005,
        "Time(s)": 170
    },
    {
        "Altitude(m)": 620937.0528676843,
        "Argument of Periapsis(deg)": 0.001875410264393353,
        "Eccentricity": 0.0,
        "Inclination(deg)": 60.0,
        "Latitude(deg)": -48.95630779857254,
        "Longitude(deg)": 150.53623792038857,
        "Mean Anomaly(deg)": 240.25281061831296,
        "RAAN(deg)": 29.99243911548463,
        "Satellite Name": "Test1 146",
        "Satellite Number": 146,
        "Semi-Major Axis(m)": 6980739.136638005,
        "Time(s)": 180
    },
    {
        "Altitude(m)": 621097.5647522297,
        "Argument of Periapsis(deg)": 0.0019795997235263173,
        "Eccentricity": 0.0,
        "Inclination(deg)": 60.0,
        "Latitude(deg)": -49.3567108037819,
        "Longitude(deg)": 151.21318998620242,
        "Mean Anomaly(deg)": 240.8729167637748,
        "RAAN(deg)": 29.992019066344888,
        "Satellite Name": "Test1 146",
        "Satellite Number": 146,
        "Semi-Major Axis(m)": 6980739.136638005,
        "Time(s)": 190
    }
]